NORAD_CAT_ID,OBJECT_NAME,OBJECT_TYPE,EPOCH,MEAN_MOTION,ECCENTRICITY,INCLINATION,RA_OF_ASC_NODE,ARG_OF_PERICENTER,MEAN_ANOMALY,BSTAR,MEAN_MOTION_DOT,MEAN_MOTION_DDOT,TLE_LINE0,TLE_LINE1,TLE_LINE2,SEMIMAJOR_AXIS,PERIOD,APOGEE,PERIGEE,DECAYED
52113.0,STARLINK-3736,PAYLOAD,2022-07-04 14:00:01,15.0884331,0.0001699,53.2159,353.0326,52.82899999999999,233.6243,-0.0011803,-0.00019025,0.0,0 STARLINK-3736,1 52113U 22029AB  22185.58334491 -.00019025  00000-0 -11803-2 0  9996,2 52113  53.2159 353.0326 0001699  52.8290 233.6243 15.08843310  1302,6917.87,95.437,540.911,538.56,0.0
52113.0,STARLINK-3736,PAYLOAD,2022-07-04 22:00:00,15.08815746,0.0001843,53.2158,351.5376,46.178,251.8751,0.0031759,0.00050586,0.0,0 STARLINK-3736,1 52113U 22029AB  22185.91667824  .00050586  00000-0  31759-2 0  9999,2 52113  53.2158 351.5376 0001843  46.1780 251.8751 15.08815746  1308,6917.955,95.439,541.095,538.545,0.0
52113.0,STARLINK-3736,PAYLOAD,2022-07-05 14:00:01,15.08876362,0.0001713,53.2163,348.5435,50.833,270.4046,-0.004182,-0.00066299,0.0,0 STARLINK-3736,1 52113U 22029AB  22186.58334491 -.00066299  00000-0 -41820-2 0  9994,2 52113  53.2163 348.5435 0001713  50.8330 270.4046 15.08876362  1300,6917.769,95.435,540.819,538.4490000000002,0.0
52113.0,STARLINK-3736,PAYLOAD,2022-07-05 22:00:00,15.08810487,0.0001806,53.2161,347.0484,43.7796,289.0723,0.0028351,0.00045085,0.0,0 STARLINK-3736,1 52113U 22029AB  22186.91667824  .00045085  00000-0  28351-2 0  9992,2 52113  53.2161 347.0484 0001806  43.7796 289.0723 15.08810487  1300,6917.971,95.439,541.085,538.586,0.0
52113.0,STARLINK-3736,PAYLOAD,2022-07-06 06:00:00,15.08816443,0.0001633,53.2164,345.5502,49.2648,295.1726,0.0021027,0.00033314,0.0,0 STARLINK-3736,1 52113U 22029AB  22187.25001157  .00033314  00000-0  21027-2 0  9996,2 52113  53.2164 345.5502 0001633  49.2648 295.1726 15.08816443 18129,6917.9519999999975,95.439,540.947,538.688,0.0
52113.0,STARLINK-3736,PAYLOAD,2022-07-06 14:00:01,15.08867482,0.0001669,53.2166,344.0546,48.3293,307.682,-0.0042222,-0.00066911,0.0,0 STARLINK-3736,1 52113U 22029AB  22187.58334491 -.00066911  00000-0 -42222-2 0  9993,2 52113  53.2166 344.0546 0001669  48.3293 307.6820 15.08867482  1303,6917.795999999999,95.436,540.816,538.507,0.0
52113.0,STARLINK-3736,PAYLOAD,2022-07-06 22:00:00,15.08802476,0.0001736,53.2163,342.5592,41.0753,326.5398,0.002058,0.00032583,0.0,0 STARLINK-3736,1 52113U 22029AB  22187.91667824  .00032583  00000-0  20580-2 0  9998,2 52113  53.2163 342.5592 0001736  41.0753 326.5398 15.08802476 18221,6917.995,95.44,541.061,538.659,0.0
52113.0,STARLINK-3736,PAYLOAD,2022-07-07 14:00:01,15.08845442,0.0001626999999999,53.2166,339.5656,46.8548,343.9019,-0.001669,-0.00026756,0.0,0 STARLINK-3736,1 52113U 22029AB  22188.58334491 -.00026756  00000-0 -16690-2 0  9997,2 52113  53.2166 339.5656 0001627  46.8548 343.9019 15.08845442  1309,6917.864000000001,95.437,540.854,538.6030000000002,0.0
52113.0,STARLINK-3736,PAYLOAD,2022-07-07 22:00:00,15.08822043,0.0001721999999999,53.2161,338.07,41.299,1.0489,0.0019279,0.00030513,0.0,0 STARLINK-3736,1 52113U 22029AB  22188.91667824  .00030513  00000-0  19279-2 0  9993,2 52113  53.2161 338.0700 0001722  41.2990   1.0489 15.08822043 18374,6917.935,95.439,540.992,538.609,0.0
52113.0,STARLINK-3736,PAYLOAD,2022-07-08 13:42:39,15.0884847,0.0001593,53.2174,335.1288,51.4439,308.6696,0.00012182,1.652e-05,0.0,0 STARLINK-3736,1 52113U 22029AB  22189.57129310  .00001652  00000-0  12182-3 0  9998,2 52113  53.2174 335.1288 0001593  51.4439 308.6696 15.08848470 18473,6917.854,95.437,540.822,538.617,0.0
52113.0,STARLINK-3736,PAYLOAD,2022-07-08 22:00:01,15.08886434,0.0001746,53.2155,333.5804,41.5455,35.7233,-0.00091789,-0.00014885,0.0,0 STARLINK-3736,1 52113U 22029AB  22189.91668981 -.00014885  00000-0 -91789-3 0  9992,2 52113  53.2155 333.5804 0001746  41.5455  35.7233 15.08886434  1307,6917.738,95.435,540.811,538.396,0.0
52113.0,STARLINK-3736,PAYLOAD,2022-07-09 06:00:00,15.08844676,0.000154,53.2155,332.0822,49.2963,39.5506,-0.0016419,-0.00026327,0.0,0 STARLINK-3736,1 52113U 22029AB  22190.25001157 -.00026327  00000-0 -16419-2 0  9997,2 52113  53.2155 332.0822 0001540  49.2963  39.5506 15.08844676 18576,6917.866,95.437,540.7959999999998,538.6659999999998,0.0
52113.0,STARLINK-3736,PAYLOAD,2022-07-09 14:00:01,15.08830713,0.0001662,53.2156,330.587,48.6278,51.8055,-0.0057696,-0.00090931,0.0,0 STARLINK-3736,1 52113U 22029AB  22190.58334491 -.00090931  00000-0 -57696-2 0  9997,2 52113  53.2156 330.5870 0001662  48.6278  51.8055 15.08830713  1306,6917.909000000002,95.438,540.924,538.624,0.0
52113.0,STARLINK-3736,PAYLOAD,2022-07-09 20:00:01,15.08746257,0.0001756,53.2153,329.4654,45.5436,333.5625,0.0030899,0.00049104,0.0,0 STARLINK-3736,1 52113U 22029AB  22190.83334491  .00049104  00000-0  30899-2 0  9995,2 52113  53.2153 329.4654 0001756  45.5436 333.5625 15.08746257  1308,6918.167,95.443,541.247,538.817,0.0
52113.0,STARLINK-3736,PAYLOAD,2022-07-10 14:00:01,15.08829167,0.0001793,53.2152,326.0979,51.6167,83.4726,-0.0013072,-0.00021026,0.0,0 STARLINK-3736,1 52113U 22029AB  22191.58334491 -.00021026  00000-0 -13072-2 0  9997,2 52113  53.2152 326.0979 0001793  51.6167  83.4726 15.08829167  1305,6917.9140000000025,95.438,541.019,538.538,0.0
52113.0,STARLINK-3736,PAYLOAD,2022-07-10 22:00:00,15.08825188,0.0001858,53.2148,324.6016,47.0982,99.5633,0.00069272,0.00010749,0.0,0 STARLINK-3736,1 52113U 22029AB  22191.91667824  .00010749  00000-0  69272-3 0  9995,2 52113  53.2148 324.6016 0001858  47.0982  99.5633 15.08825188 18821,6917.926,95.438,541.076,538.505,0.0
52113.0,STARLINK-3736,PAYLOAD,2022-07-11 14:00:01,15.0885048,0.0001855,53.2152,321.6084,50.8485,118.9877,-0.00095247,-0.00015419,0.0,0 STARLINK-3736,1 52113U 22029AB  22192.58334491 -.00015419  00000-0 -95247-3 0  9992,2 52113  53.2152 321.6084 0001855  50.8485 118.9877 15.08850480  1309,6917.848000000001,95.437,540.997,538.43,0.0
52113.0,STARLINK-3736,PAYLOAD,2022-07-11 22:00:00,15.08865778,0.0001876,53.2151,320.1121,46.4102,135.024,-0.0019229,-0.00030783,0.0,0 STARLINK-3736,1 52113U 22029AB  22192.91667824 -.00030783  00000-0 -19229-2 0  9994,2 52113  53.2151 320.1121 0001876  46.4102 135.0240 15.08865778  1304,6917.802,95.436,540.964,538.369,0.0
52113.0,STARLINK-3736,PAYLOAD,2022-07-12 14:00:01,15.08859712,0.0001835,53.2156,317.1191,46.7125,157.944,-0.00066005,-0.00010783,0.0,0 STARLINK-3736,1 52113U 22029AB  22193.58334491 -.00010783  00000-0 -66005-3 0  9992,2 52113  53.2156 317.1191 0001835  46.7125 157.9440 15.08859712  1301,6917.82,95.436,540.955,538.4159999999998,0.0
52113.0,STARLINK-3736,PAYLOAD,2022-07-12 22:00:00,15.088693,0.0001825,53.2156,315.6226,42.4291,173.8408,-0.0019562,-0.00031312,0.0,0 STARLINK-3736,1 52113U 22029AB  22193.91667824 -.00031312  00000-0 -19562-2 0  9994,2 52113  53.2156 315.6226 0001825  42.4291 173.8408 15.08869300  1304,6917.791,95.436,540.918,538.393,0.0
52113.0,STARLINK-3736,PAYLOAD,2022-07-13 04:00:00,15.08842542,0.0001671,53.216,314.499,46.2125,88.7774,0.00050415,7.745e-05,0.0,0 STARLINK-3736,1 52113U 22029AB  22194.16667824  .00007745  00000-0  50415-3 0  9996,2 52113  53.2160 314.4990 0001671  46.2125  88.7774 15.08842542 19163,6917.873000000001,95.437,540.894,538.582,0.0
52113.0,STARLINK-3736,PAYLOAD,2022-07-13 14:00:01,15.08841655,0.000185,53.2161,312.6299,45.3346,194.1499,-0.0034344,-0.00054536,0.0,0 STARLINK-3736,1 52113U 22029AB  22194.58334491 -.00054536  00000-0 -34344-2 0  9997,2 52113  53.2161 312.6299 0001850  45.3346 194.1499 15.08841655 19227,6917.875,95.437,541.02,538.461,0.0
52113.0,STARLINK-3736,PAYLOAD,2022-07-13 22:00:00,15.08835948,0.000184,53.2161,311.1334,42.8545,208.1984,-0.0028034,-0.00044624,0.0,0 STARLINK-3736,1 52113U 22029AB  22194.91667824 -.00044624  00000-0 -28034-2 0  9999,2 52113  53.2161 311.1334 0001840  42.8545 208.1984 15.08835948  1306,6917.893,95.438,541.031,538.485,0.0
52113.0,STARLINK-3736,PAYLOAD,2022-07-14 06:00:00,15.08779957,0.0001759,53.2163,309.6357,50.2372,212.3896,0.0023394,0.00037079,0.0,0 STARLINK-3736,1 52113U 22029AB  22195.25001157  .00037079  00000-0  23394-2 0  9996,2 52113  53.2163 309.6357 0001759  50.2372 212.3896 15.08779957 19322,6918.064,95.441,541.146,538.712,0.0
52113.0,STARLINK-3736,PAYLOAD,2022-07-14 14:00:01,15.08799844,0.0001919,53.2164,308.1412,46.6402,227.5222,-0.00030945,-5.204e-05,0.0,0 STARLINK-3736,1 52113U 22029AB  22195.58334491 -.00005204  00000-0 -30945-3 0  9990,2 52113  53.2164 308.1412 0001919  46.6402 227.5222 15.08799844  1307,6918.003000000002,95.44,541.196,538.5409999999998,0.0
52113.0,STARLINK-3736,PAYLOAD,2022-07-14 22:00:00,15.08814958,0.0001846,53.2161,306.6447,44.1252,241.5792,0.0014341,0.00022594,0.0,0 STARLINK-3736,1 52113U 22029AB  22195.91667824  .00022594  00000-0  14341-2 0  9996,2 52113  53.2161 306.6447 0001846  44.1252 241.5792 15.08814958 19424,6917.956999999999,95.439,541.099,538.545,0.0
52113.0,STARLINK-3736,PAYLOAD,2022-07-15 14:00:01,15.08855097,0.0001843,53.2161,303.6525,44.3939,264.4917,-1.3547e-05,-5.04e-06,0.0,0 STARLINK-3736,1 52113U 22029AB  22196.58334491 -.00000504  00000-0 -13547-4 0  9999,2 52113  53.2161 303.6525 0001843  44.3939 264.4917 15.08855097  1309,6917.834,95.437,540.974,538.424,0.0
52113.0,STARLINK-3736,PAYLOAD,2022-07-15 22:00:00,15.08891688,0.0001818,53.2157,302.1557,44.0701,276.423,-0.004227,-0.00067031,0.0,0 STARLINK-3736,1 52113U 22029AB  22196.91667824 -.00067031  00000-0 -42270-2 0  9996,2 52113  53.2157 302.1557 0001818  44.0701 276.4230 15.08891688  1306,6917.722,95.434,540.845,538.33,0.0
52113.0,STARLINK-3736,PAYLOAD,2022-07-16 06:00:00,15.08832911,0.0001725,53.2158,300.6581,51.8518,280.2751,0.002885,0.00045917,0.0,0 STARLINK-3736,1 52113U 22029AB  22197.25001157  .00045917  00000-0  28850-2 0  9990,2 52113  53.2158 300.6581 0001725  51.8518 280.2751 15.08832911 19636,6917.901999999999,95.438,540.96,538.5740000000002,0.0
